{
  "type": "FeatureCollection",
  "features": [
    {
      "type": "Feature",
      "properties": {
        "norad_id": 67230,
        "name": "ELECTRON R/B",
        "group": "last-30-days",
        "lat": 41.94825231425906,
        "lon": -170.67095555192776,
        "alt_km": 548.7529225679555,
        "timestamp": "2025-12-25T14:48:23.573750+00:00",
        "meta_object_name": "ELECTRON R/B",
        "meta_object_id": "2025-307C",
        "meta_epoch": "2025-12-21T08:41:59.140320",
        "meta_mean_motion": 15.55087105,
        "meta_eccentricity": 0.02614087,
        "meta_inclination": 41.982,
        "meta_ra_of_asc_node": 123.1026,
        "meta_arg_of_pericenter": 268.141,
        "meta_mean_anomaly": 88.9482,
        "meta_ephemeris_type": 0,
        "meta_classification_type": "U",
        "meta_norad_cat_id": 67230,
        "meta_element_set_no": 999,
        "meta_rev_at_epoch": 1,
        "meta_bstar": 0.00020247584,
        "meta_mean_motion_dot": 0.00071881,
        "meta_mean_motion_ddot": 8.106877e-06,
        "tle_line1": "1 67230U 25307C   25355.36249005  .00071881  81069-5  20248-3 0  9997",
        "tle_line2": "2 67230  41.9820 123.1026 0261408 268.1410  88.9482 15.55087105    19"
      },
      "geometry": {
        "type": "Point",
        "coordinates": [
          -170.67095555192776,
          41.94825231425906
        ]
      }
    },
    {
      "type": "Feature",
      "properties": {
        "norad_id": 67231,
        "name": "2025-308A",
        "group": "last-30-days",
        "lat": 44.519848117654284,
        "lon": -145.22064583250804,
        "alt_km": 188.42156161443927,
        "timestamp": "2025-12-25T14:48:23.573759+00:00",
        "meta_object_name": "2025-308A",
        "meta_object_id": "2025-308A",
        "meta_epoch": "2025-12-25T06:52:34.278240",
        "meta_mean_motion": 16.23606019,
        "meta_eccentricity": 0.00235166,
        "meta_inclination": 69.7075,
        "meta_ra_of_asc_node": 57.1379,
        "meta_arg_of_pericenter": 150.2261,
        "meta_mean_anomaly": 210.0304,
        "meta_ephemeris_type": 0,
        "meta_classification_type": "U",
        "meta_norad_cat_id": 67231,
        "meta_element_set_no": 999,
        "meta_rev_at_epoch": 36,
        "meta_bstar": 0.00054631608,
        "meta_mean_motion_dot": 0.01488182,
        "meta_mean_motion_ddot": 4.371709e-06,
        "tle_line1": "1 67231U 25308A   25359.28650785  .01488182  43717-5  54632-3 0  9994",
        "tle_line2": "2 67231  69.7075  57.1379 0023516 150.2261 210.0304 16.23606019   364"
      },
      "geometry": {
        "type": "Point",
        "coordinates": [
          -145.22064583250804,
          44.519848117654284
        ]
      }
    }
  ]
}